{
  "type": "FeatureCollection",
  "features": [
    {
      "type": "Feature",
      "properties": {
        "norad_id": 33886,
        "name": "IRIDIUM 33 DEB",
        "group": "iridium-33-debris",
        "lat": 41.414511312127566,
        "lon": 71.86623938876194,
        "alt_km": 775.5802302650372,
        "timestamp": "2025-12-09T07:41:33.595470+00:00",
        "meta_object_name": "IRIDIUM 33 DEB",
        "meta_object_id": "1997-051BF",
        "meta_epoch": "2025-12-08T23:56:35.389248",
        "meta_mean_motion": 14.36044498,
        "meta_eccentricity": 0.00121176,
        "meta_inclination": 86.383,
        "meta_ra_of_asc_node": 68.8037,
        "meta_arg_of_pericenter": 256.117,
        "meta_mean_anomaly": 277.1673,
        "meta_ephemeris_type": 0,
        "meta_classification_type": "U",
        "meta_norad_cat_id": 33886,
        "meta_element_set_no": 999,
        "meta_rev_at_epoch": 87998,
        "meta_bstar": 0.00031398742,
        "meta_mean_motion_dot": 9.33e-06,
        "meta_mean_motion_ddot": 0,
        "tle_line1": "1 33886U 97051BF  25342.99763182  .00000933  00000+0  31399-3 0  9993",
        "tle_line2": "2 33886  86.3830  68.8037 0012117 256.1170 277.1673 14.36044498879981"
      },
      "geometry": {
        "type": "Point",
        "coordinates": [
          71.86623938876194,
          41.414511312127566
        ]
      }
    },
    {
      "type": "Feature",
      "properties": {
        "norad_id": 33887,
        "name": "IRIDIUM 33 DEB",
        "group": "iridium-33-debris",
        "lat": -36.57058462116132,
        "lon": 2.118105789567173,
        "alt_km": 773.6097529335912,
        "timestamp": "2025-12-09T07:41:33.595481+00:00",
        "meta_object_name": "IRIDIUM 33 DEB",
        "meta_object_id": "1997-051BG",
        "meta_epoch": "2025-12-08T12:25:25.149216",
        "meta_mean_motion": 14.37215851,
        "meta_eccentricity": 0.00041571,
        "meta_inclination": 86.3048,
        "meta_ra_of_asc_node": 5.2119,
        "meta_arg_of_pericenter": 246.101,
        "meta_mean_anomaly": 245.8633,
        "meta_ephemeris_type": 0,
        "meta_classification_type": "U",
        "meta_norad_cat_id": 33887,
        "meta_element_set_no": 999,
        "meta_rev_at_epoch": 88104,
        "meta_bstar": 0.00027289302,
        "meta_mean_motion_dot": 8.32e-06,
        "meta_mean_motion_ddot": 0,
        "tle_line1": "1 33887U 97051BG  25342.51765219  .00000832  00000+0  27289-3 0  9996",
        "tle_line2": "2 33887  86.3048   5.2119 0004157 246.1010 245.8633 14.37215851881048"
      },
      "geometry": {
        "type": "Point",
        "coordinates": [
          2.118105789567173,
          -36.57058462116132
        ]
      }
    },
    {
      "type": "Feature",
      "properties": {
        "norad_id": 33953,
        "name": "IRIDIUM 33 DEB",
        "group": "iridium-33-debris",
        "lat": -43.36214938696121,
        "lon": 51.83962723775175,
        "alt_km": 727.2304222676503,
        "timestamp": "2025-12-09T07:41:33.595492+00:00",
        "meta_object_name": "IRIDIUM 33 DEB",
        "meta_object_id": "1997-051BN",
        "meta_epoch": "2025-12-08T15:57:49.131936",
        "meta_mean_motion": 14.55261918,
        "meta_eccentricity": 0.0018478,
        "meta_inclination": 86.3841,
        "meta_ra_of_asc_node": 55.5477,
        "meta_arg_of_pericenter": 115.1859,
        "meta_mean_anomaly": 10.2465,
        "meta_ephemeris_type": 0,
        "meta_classification_type": "U",
        "meta_norad_cat_id": 33953,
        "meta_element_set_no": 999,
        "meta_rev_at_epoch": 88244,
        "meta_bstar": 0.0018443,
        "meta_mean_motion_dot": 8.026e-05,
        "meta_mean_motion_ddot": 0,
        "tle_line1": "1 33953U 97051BN  25342.66515199  .00008026  00000+0  18443-2 0  9990",
        "tle_line2": "2 33953  86.3841  55.5477 0018478 115.1859  10.2465 14.55261918882442"
      },
      "geometry": {
        "type": "Point",
        "coordinates": [
          51.83962723775175,
          -43.36214938696121
        ]
      }
    },
    {
      "type": "Feature",
      "properties": {
        "norad_id": 33960,
        "name": "IRIDIUM 33 DEB",
        "group": "iridium-33-debris",
        "lat": 64.32672490295278,
        "lon": 103.29165344279617,
        "alt_km": 604.3801425073916,
        "timestamp": "2025-12-09T07:41:33.595503+00:00",
        "meta_object_name": "IRIDIUM 33 DEB",
        "meta_object_id": "1997-051BV",
        "meta_epoch": "2025-12-08T21:44:18.324960",
        "meta_mean_motion": 14.8486698,
        "meta_eccentricity": 0.00073075,
        "meta_inclination": 86.2537,
        "meta_ra_of_asc_node": 291.3214,
        "meta_arg_of_pericenter": 67.9979,
        "meta_mean_anomaly": 351.6449,
        "meta_ephemeris_type": 0,
        "meta_classification_type": "U",
        "meta_norad_cat_id": 33960,
        "meta_element_set_no": 999,
        "meta_rev_at_epoch": 88810,
        "meta_bstar": 0.0037227683,
        "meta_mean_motion_dot": 0.00031788,
        "meta_mean_motion_ddot": 0,
        "tle_line1": "1 33960U 97051BV  25342.90576765  .00031788  00000+0  37228-2 0  9994",
        "tle_line2": "2 33960  86.2537 291.3214 0007307  67.9979 351.6449 14.84866980888101"
      },
      "geometry": {
        "type": "Point",
        "coordinates": [
          103.29165344279617,
          64.32672490295278
        ]
      }
    },
    {
      "type": "Feature",
      "properties": {
        "norad_id": 33966,
        "name": "IRIDIUM 33 DEB",
        "group": "iridium-33-debris",
        "lat": 26.91905243829565,
        "lon": -134.3411108074942,
        "alt_km": 722.7261209684984,
        "timestamp": "2025-12-09T07:41:33.595517+00:00",
        "meta_object_name": "IRIDIUM 33 DEB",
        "meta_object_id": "1997-051CB",
        "meta_epoch": "2025-12-08T16:37:01.548192",
        "meta_mean_motion": 14.49569326,
        "meta_eccentricity": 0.00069456,
        "meta_inclination": 86.3923,
        "meta_ra_of_asc_node": 47.7641,
        "meta_arg_of_pericenter": 202.0511,
        "meta_mean_anomaly": 275.0616,
        "meta_ephemeris_type": 0,
        "meta_classification_type": "U",
        "meta_norad_cat_id": 33966,
        "meta_element_set_no": 999,
        "meta_rev_at_epoch": 88383,
        "meta_bstar": 0.00096318773,
        "meta_mean_motion_dot": 3.715e-05,
        "meta_mean_motion_ddot": 0,
        "tle_line1": "1 33966U 97051CB  25342.69237903  .00003715  00000+0  96319-3 0  9990",
        "tle_line2": "2 33966  86.3923  47.7641 0006945 202.0511 275.0616 14.49569326883830"
      },
      "geometry": {
        "type": "Point",
        "coordinates": [
          -134.3411108074942,
          26.91905243829565
        ]
      }
    },
    {
      "type": "Feature",
      "properties": {
        "norad_id": 34071,
        "name": "IRIDIUM 33 DEB",
        "group": "iridium-33-debris",
        "lat": -41.05935317800526,
        "lon": -157.49411203383974,
        "alt_km": 735.8850577832955,
        "timestamp": "2025-12-09T07:41:33.595528+00:00",
        "meta_object_name": "IRIDIUM 33 DEB",
        "meta_object_id": "1997-051CE",
        "meta_epoch": "2025-12-08T20:44:07.776960",
        "meta_mean_motion": 14.49437096,
        "meta_eccentricity": 0.0009809,
        "meta_inclination": 86.3456,
        "meta_ra_of_asc_node": 19.5128,
        "meta_arg_of_pericenter": 117.9663,
        "meta_mean_anomaly": 242.2535,
        "meta_ephemeris_type": 0,
        "meta_classification_type": "U",
        "meta_norad_cat_id": 34071,
        "meta_element_set_no": 999,
        "meta_rev_at_epoch": 88278,
        "meta_bstar": 0.00076109809,
        "meta_mean_motion_dot": 2.933e-05,
        "meta_mean_motion_ddot": 0,
        "tle_line1": "1 34071U 97051CE  25342.86397890  .00002933  00000+0  76110-3 0  9997",
        "tle_line2": "2 34071  86.3456  19.5128 0009809 117.9663 242.2535 14.49437096882787"
      },
      "geometry": {
        "type": "Point",
        "coordinates": [
          -157.49411203383974,
          -41.05935317800526
        ]
      }
    },
    {
      "type": "Feature",
      "properties": {
        "norad_id": 34077,
        "name": "IRIDIUM 33 DEB",
        "group": "iridium-33-debris",
        "lat": -54.6281117034424,
        "lon": -121.87846909007156,
        "alt_km": 692.423364883658,
        "timestamp": "2025-12-09T07:41:33.595539+00:00",
        "meta_object_name": "IRIDIUM 33 DEB",
        "meta_object_id": "1997-051CL",
        "meta_epoch": "2025-12-08T16:24:26.669664",
        "meta_mean_motion": 14.64746449,
        "meta_eccentricity": 0.00106018,
        "meta_inclination": 86.3858,
        "meta_ra_of_asc_node": 53.2941,
        "meta_arg_of_pericenter": 52.2833,
        "meta_mean_anomaly": 66.251,
        "meta_ephemeris_type": 0,
        "meta_classification_type": "U",
        "meta_norad_cat_id": 34077,
        "meta_element_set_no": 999,
        "meta_rev_at_epoch": 88273,
        "meta_bstar": 0.0022935855,
        "meta_mean_motion_dot": 0.00012259,
        "meta_mean_motion_ddot": 0,
        "tle_line1": "1 34077U 97051CL  25342.68364201  .00012259  00000+0  22936-2 0  9991",
        "tle_line2": "2 34077  86.3858  53.2941 0010601  52.2833  66.2510 14.64746449882733"
      },
      "geometry": {
        "type": "Point",
        "coordinates": [
          -121.87846909007156,
          -54.6281117034424
        ]
      }
    }
  ]
}